SL-23 R/B               
1 37835U 11056B   26093.72701291  .00000123  00000+0  00000+0 0  9992
2 37835  19.6390 331.9527 5665931 248.9177  43.4060  1.96794299104209
EUTELSAT 16A            
1 37836U 11057A   26094.19419966  .00000103  00000+0  00000+0 0  9999
2 37836   0.0583  14.9844 0005547   2.3828 261.0447  1.00272864  6593
VIASAT-1                
1 37843U 11059A   26094.58124459 -.00000024  00000+0  00000+0 0  9995
2 37843   0.0181 225.8067 0002529 152.4126 268.8224  1.00273130 46588
ASIASAT 7               
1 37933U 11069A   26094.05451933 -.00000335  00000+0  00000+0 0  9993
2 37933   0.0181 186.3144 0001782 188.4836 302.6876  1.00274928 44115
BEIDOU-2 IGSO-5         
1 37948U 11073A   26093.97039089 -.00000174  00000+0  00000+0 0  9999
2 37948  47.8149 272.4589 0109539 220.8427 142.8662  1.00265759 52398
AMOS-5                  
1 37950U 11074A   26093.91152613 -.00000315  00000+0  00000+0 0  9993
2 37950   8.6445  61.5532 0002565 332.1999 230.5414  1.00186676 52257
LUCH-5A                 
1 37951U 11074B   26094.23030840 -.00000047  00000+0  00000+0 0  9999
2 37951   8.5670  74.8810 0003176 284.4600  83.0440  1.00271206 52311
BREEZE-M R/B            
1 37952U 11074C   26094.50349745 -.00000184  00000+0  00000+0 0  9999
2 37952  11.2081  50.8313 0796824 178.8613 356.9530  0.89625578 46484
NIGCOMSAT 1R            
1 38014U 11077A   26094.24350380  .00000144  00000+0  00000+0 0  9995
2 38014   0.0386 239.9770 0002951  94.6085 348.1459  1.00268617 52216
WGS F4 (USA 233)        
1 38070U 12003A   26094.12246627 -.00000216  00000+0  00000+0 0  9993
2 38070   0.0169 187.3607 0000145 180.4331 317.1246  1.00272164 43406
DELTA 4 R/B             
1 38071U 12003B   26090.20397910  .00002251  00000+0  22357-2 0  9993
2 38071  20.3028 112.0983 8260967 309.0656   2.8109  1.16645333 60050
FENGYUN 2F AKM          
1 38072U 12002C   26094.44021035  .00000026  00000+0  00000+0 0  9991
2 38072   8.9953  58.5375 0062769 206.3985 339.2967  0.99391775 51108
SES-4                   
1 38087U 12007A   26094.21642233 -.00000169  00000+0  00000+0 0  9995
2 38087   0.0293  65.6049 0002267 315.9599 226.8854  1.00271821 51485
BEIDOU-2 G5             
1 38091U 12008A   26094.18789986  .00000057  00000+0  00000+0 0  9999
2 38091   3.3901  70.1219 0013251 260.9431 347.8598  1.00275805 51622
MUOS-1                  
1 38093U 12009A   26094.27709020 -.00000126  00000+0  00000+0 0  9991
2 38093   5.3256  47.1831 0058898 359.7937 145.4249  1.00271644 51708
INTELSAT 22 (IS-22)     
1 38098U 12011A   26094.19049987 -.00000059  00000+0  00000+0 0  9994
2 38098   0.0126 222.1585 0001678 156.2103 314.8226  1.00271481  6448
BREEZE-M R/B            
1 38099U 12011B   26089.21373716 -.00000384  00000+0  00000+0 0  9993
2 38099  25.4380 169.7570 7607105   0.1185   0.1351  1.11833956 57097
